CCSDS_OMM_VERS = 2.0
CREATION_DATE  = 
ORIGINATOR     = 

OBJECT_NAME    = 2025-226A
OBJECT_ID      = 2025-226A
CENTER_NAME    = EARTH
REF_FRAME      = TEME
TIME_SYSTEM    = UTC
MEAN_ELEMENT_THEORY = SGP/SGP4

EPOCH          = 2025-10-29T22:36:08.800992
MEAN_MOTION    = 15.11797442
ECCENTRICITY   = .00145393
INCLINATION    = 97.6667
RA_OF_ASC_NODE = 17.1270
ARG_OF_PERICENTER = 215.4506
MEAN_ANOMALY   = 144.5759

EPHEMERIS_TYPE = 0
CLASSIFICATION_TYPE = U
NORAD_CAT_ID   = 65938
ELEMENT_SET_NO = 999
REV_AT_EPOCH   = 285
BSTAR          = .7305768E-3
MEAN_MOTION_DOT = .1245E-3
MEAN_MOTION_DDOT = 0

CCSDS_OMM_VERS = 2.0
CREATION_DATE  = 
ORIGINATOR     = 

OBJECT_NAME    = 2025-226B
OBJECT_ID      = 2025-226B
CENTER_NAME    = EARTH
REF_FRAME      = TEME
TIME_SYSTEM    = UTC
MEAN_ELEMENT_THEORY = SGP/SGP4

EPOCH          = 2025-10-29T23:05:22.948224
MEAN_MOTION    = 15.09672895
ECCENTRICITY   = .00207313
INCLINATION    = 97.6621
RA_OF_ASC_NODE = 17.0908
ARG_OF_PERICENTER = 219.7263
MEAN_ANOMALY   = 140.2449

EPHEMERIS_TYPE = 0
CLASSIFICATION_TYPE = U
NORAD_CAT_ID   = 65939
ELEMENT_SET_NO = 999
REV_AT_EPOCH   = 284
BSTAR          = .53146082E-3
MEAN_MOTION_DOT = .8539E-4
MEAN_MOTION_DDOT = 0

CCSDS_OMM_VERS = 2.0
CREATION_DATE  = 
ORIGINATOR     = 

OBJECT_NAME    = 2025-226C
OBJECT_ID      = 2025-226C
CENTER_NAME    = EARTH
REF_FRAME      = TEME
TIME_SYSTEM    = UTC
MEAN_ELEMENT_THEORY = SGP/SGP4

EPOCH          = 2025-10-29T22:38:08.935872
MEAN_MOTION    = 15.11685845
ECCENTRICITY   = .00145062
INCLINATION    = 97.6576
RA_OF_ASC_NODE = 17.1049
ARG_OF_PERICENTER = 213.3543
MEAN_ANOMALY   = 146.6774

EPHEMERIS_TYPE = 0
CLASSIFICATION_TYPE = U
NORAD_CAT_ID   = 65940
ELEMENT_SET_NO = 999
REV_AT_EPOCH   = 284
BSTAR          = .73982392E-3
MEAN_MOTION_DOT = .12569E-3
MEAN_MOTION_DDOT = 0

CCSDS_OMM_VERS = 2.0
CREATION_DATE  = 
ORIGINATOR     = 

OBJECT_NAME    = YOTSUBA-KULOVER
OBJECT_ID      = 1998-067XN
CENTER_NAME    = EARTH
REF_FRAME      = TEME
TIME_SYSTEM    = UTC
MEAN_ELEMENT_THEORY = SGP/SGP4

EPOCH          = 2025-10-29T12:38:45.953664
MEAN_MOTION    = 15.52855752
ECCENTRICITY   = .0002385
INCLINATION    = 51.6330
RA_OF_ASC_NODE = 1.0526
ARG_OF_PERICENTER = 329.8060
MEAN_ANOMALY   = 30.2793

EPHEMERIS_TYPE = 0
CLASSIFICATION_TYPE = U
NORAD_CAT_ID   = 65941
ELEMENT_SET_NO = 999
REV_AT_EPOCH   = 297
BSTAR          = .91255201E-3
MEAN_MOTION_DOT = .5763E-3
MEAN_MOTION_DDOT = 0

CCSDS_OMM_VERS = 2.0
CREATION_DATE  = 
ORIGINATOR     = 

OBJECT_NAME    = BOTAN
OBJECT_ID      = 1998-067XP
CENTER_NAME    = EARTH
REF_FRAME      = TEME
TIME_SYSTEM    = UTC
MEAN_ELEMENT_THEORY = SGP/SGP4

EPOCH          = 2025-10-29T06:21:51.635808
MEAN_MOTION    = 15.53535995
ECCENTRICITY   = .00044855
INCLINATION    = 51.6330
RA_OF_ASC_NODE = 2.3057
ARG_OF_PERICENTER = 349.8237
MEAN_ANOMALY   = 10.2662

EPHEMERIS_TYPE = 0
CLASSIFICATION_TYPE = U
NORAD_CAT_ID   = 65942
ELEMENT_SET_NO = 999
REV_AT_EPOCH   = 293
BSTAR          = .12538941E-2
MEAN_MOTION_DOT = .81619E-3
MEAN_MOTION_DDOT = 0

CCSDS_OMM_VERS = 2.0
CREATION_DATE  = 
ORIGINATOR     = 

OBJECT_NAME    = E-KAGAKU-1
OBJECT_ID      = 1998-067XQ
CENTER_NAME    = EARTH
REF_FRAME      = TEME
TIME_SYSTEM    = UTC
MEAN_ELEMENT_THEORY = SGP/SGP4

EPOCH          = 2025-10-29T12:38:09.926592
MEAN_MOTION    = 15.52865826
ECCENTRICITY   = .0004142
INCLINATION    = 51.6334
RA_OF_ASC_NODE = 1.0497
ARG_OF_PERICENTER = 339.6599
MEAN_ANOMALY   = 20.4226

EPHEMERIS_TYPE = 0
CLASSIFICATION_TYPE = U
NORAD_CAT_ID   = 65943
ELEMENT_SET_NO = 999
REV_AT_EPOCH   = 297
BSTAR          = .88576289E-3
MEAN_MOTION_DOT = .55943E-3
MEAN_MOTION_DDOT = 0

CCSDS_OMM_VERS = 2.0
CREATION_DATE  = 
ORIGINATOR     = 

OBJECT_NAME    = 2025-226D
OBJECT_ID      = 2025-226D
CENTER_NAME    = EARTH
REF_FRAME      = TEME
TIME_SYSTEM    = UTC
MEAN_ELEMENT_THEORY = SGP/SGP4

EPOCH          = 2025-10-17T22:42:20.181888
MEAN_MOTION    = 15.16526485
ECCENTRICITY   = .0019022
INCLINATION    = 97.6632
RA_OF_ASC_NODE = 5.1263
ARG_OF_PERICENTER = 287.2735
MEAN_ANOMALY   = 72.6416

EPHEMERIS_TYPE = 0
CLASSIFICATION_TYPE = U
NORAD_CAT_ID   = 65944
ELEMENT_SET_NO = 999
REV_AT_EPOCH   = 102
BSTAR          = 0
MEAN_MOTION_DOT = -.71E-6
MEAN_MOTION_DDOT = 0

CCSDS_OMM_VERS = 2.0
CREATION_DATE  = 
ORIGINATOR     = 

OBJECT_NAME    = SHIYAN-31
OBJECT_ID      = 2025-227A
CENTER_NAME    = EARTH
REF_FRAME      = TEME
TIME_SYSTEM    = UTC
MEAN_ELEMENT_THEORY = SGP/SGP4

EPOCH          = 2025-10-29T21:59:24.366336
MEAN_MOTION    = 15.20282524
ECCENTRICITY   = .00115323
INCLINATION    = 80.0038
RA_OF_ASC_NODE = 80.0971
ARG_OF_PERICENTER = 214.3489
MEAN_ANOMALY   = 145.6994

EPHEMERIS_TYPE = 0
CLASSIFICATION_TYPE = U
NORAD_CAT_ID   = 65945
ELEMENT_SET_NO = 999
REV_AT_EPOCH   = 251
BSTAR          = .48453973E-3
MEAN_MOTION_DOT = .10561E-3
MEAN_MOTION_DDOT = 0

CCSDS_OMM_VERS = 2.0
CREATION_DATE  = 
ORIGINATOR     = 

OBJECT_NAME    = CZ-2D R/B
OBJECT_ID      = 2025-227B
CENTER_NAME    = EARTH
REF_FRAME      = TEME
TIME_SYSTEM    = UTC
MEAN_ELEMENT_THEORY = SGP/SGP4

EPOCH          = 2025-10-29T21:45:02.358720
MEAN_MOTION    = 15.27356723
ECCENTRICITY   = .00214633
INCLINATION    = 80.1542
RA_OF_ASC_NODE = 80.3874
ARG_OF_PERICENTER = 340.8038
MEAN_ANOMALY   = 19.2382

EPHEMERIS_TYPE = 0
CLASSIFICATION_TYPE = U
NORAD_CAT_ID   = 65946
ELEMENT_SET_NO = 999
REV_AT_EPOCH   = 252
BSTAR          = .45507898E-3
MEAN_MOTION_DOT = .12297E-3
MEAN_MOTION_DDOT = 0

CCSDS_OMM_VERS = 2.0
CREATION_DATE  = 
ORIGINATOR     = 

OBJECT_NAME    = KUIPER-00101
OBJECT_ID      = 2025-228A
CENTER_NAME    = EARTH
REF_FRAME      = TEME
TIME_SYSTEM    = UTC
MEAN_ELEMENT_THEORY = SGP/SGP4

EPOCH          = 2025-10-29T21:41:48.963552
MEAN_MOTION    = 15.34660643
ECCENTRICITY   = .0006066
INCLINATION    = 51.8784
RA_OF_ASC_NODE = 231.7480
ARG_OF_PERICENTER = 185.5980
MEAN_ANOMALY   = 174.4939

EPHEMERIS_TYPE = 0
CLASSIFICATION_TYPE = U
NORAD_CAT_ID   = 65947
ELEMENT_SET_NO = 999
REV_AT_EPOCH   = 368
BSTAR          = .1441392E-2
MEAN_MOTION_DOT = .49118E-3
MEAN_MOTION_DDOT = 0

CCSDS_OMM_VERS = 2.0
CREATION_DATE  = 
ORIGINATOR     = 

OBJECT_NAME    = KUIPER-00113
OBJECT_ID      = 2025-228B
CENTER_NAME    = EARTH
REF_FRAME      = TEME
TIME_SYSTEM    = UTC
MEAN_ELEMENT_THEORY = SGP/SGP4

EPOCH          = 2025-10-29T21:37:59.327040
MEAN_MOTION    = 15.34941622
ECCENTRICITY   = .00064086
INCLINATION    = 51.8787
RA_OF_ASC_NODE = 231.7329
ARG_OF_PERICENTER = 187.3249
MEAN_ANOMALY   = 172.7644

EPHEMERIS_TYPE = 0
CLASSIFICATION_TYPE = U
NORAD_CAT_ID   = 65948
ELEMENT_SET_NO = 999
REV_AT_EPOCH   = 368
BSTAR          = .10971375E-2
MEAN_MOTION_DOT = .37578E-3
MEAN_MOTION_DDOT = 0

CCSDS_OMM_VERS = 2.0
CREATION_DATE  = 
ORIGINATOR     = 

OBJECT_NAME    = KUIPER-00117
OBJECT_ID      = 2025-228C
CENTER_NAME    = EARTH
REF_FRAME      = TEME
TIME_SYSTEM    = UTC
MEAN_ELEMENT_THEORY = SGP/SGP4

EPOCH          = 2025-10-29T21:38:36.635424
MEAN_MOTION    = 15.34894742
ECCENTRICITY   = .00061265
INCLINATION    = 51.8785
RA_OF_ASC_NODE = 231.7356
ARG_OF_PERICENTER = 186.9479
MEAN_ANOMALY   = 173.1423

EPHEMERIS_TYPE = 0
CLASSIFICATION_TYPE = U
NORAD_CAT_ID   = 65949
ELEMENT_SET_NO = 999
REV_AT_EPOCH   = 368
BSTAR          = .10121525E-2
MEAN_MOTION_DOT = .34569E-3
MEAN_MOTION_DDOT = 0

