2025-226A               
1 65938U 25226A   25302.94176853  .00012450  00000+0  73058-3 0  9990
2 65938  97.6667  17.1270 0014539 215.4506 144.5759 15.11797442  2858
2025-226B               
1 65939U 25226B   25302.96207116  .00008539  00000+0  53146-3 0  9999
2 65939  97.6621  17.0908 0020731 219.7263 140.2449 15.09672895  2843
2025-226C               
1 65940U 25226C   25302.94315898  .00012569  00000+0  73982-3 0  9994
2 65940  97.6576  17.1049 0014506 213.3543 146.6774 15.11685845  2848
YOTSUBA-KULOVER         
1 65941U 98067XN  25302.52692076  .00057630  00000+0  91255-3 0  9999
2 65941  51.6330   1.0526 0002385 329.8060  30.2793 15.52855752  2972
BOTAN                   
1 65942U 98067XP  25302.26518097  .00081619  00000+0  12539-2 0  9992
2 65942  51.6330   2.3057 0004485 349.8237  10.2662 15.53535995  2931
E-KAGAKU-1              
1 65943U 98067XQ  25302.52650378  .00055943  00000+0  88576-3 0  9997
2 65943  51.6334   1.0497 0004142 339.6599  20.4226 15.52865826  2979
2025-226D               
1 65944U 25226D   25290.94606692 -.00000071  00000+0  00000+0 0  9992
2 65944  97.6632   5.1263 0019022 287.2735  72.6416 15.16526485  1020
SHIYAN-31               
1 65945U 25227A   25302.91625424  .00010561  00000+0  48454-3 0  9992
2 65945  80.0038  80.0971 0011532 214.3489 145.6994 15.20282524  2515
CZ-2D R/B               
1 65946U 25227B   25302.90627730  .00012297  00000+0  45508-3 0  9999
2 65946  80.1542  80.3874 0021463 340.8038  19.2382 15.27356723  2529
KUIPER-00101            
1 65947U 25228A   25302.90403893  .00049118  00000+0  14414-2 0  9996
2 65947  51.8784 231.7480 0006066 185.5980 174.4939 15.34660643  3687
KUIPER-00113            
1 65948U 25228B   25302.90138110  .00037578  00000+0  10971-2 0  9995
2 65948  51.8787 231.7329 0006408 187.3249 172.7644 15.34941622  3684
KUIPER-00117            
1 65949U 25228C   25302.90181291  .00034569  00000+0  10122-2 0  9999
2 65949  51.8785 231.7356 0006126 186.9479 173.1423 15.34894742  3680
